NORAD_CAT_ID,OBJECT_NAME,OBJECT_TYPE,EPOCH,MEAN_MOTION,ECCENTRICITY,INCLINATION,RA_OF_ASC_NODE,ARG_OF_PERICENTER,MEAN_ANOMALY,BSTAR,MEAN_MOTION_DOT,MEAN_MOTION_DDOT,TLE_LINE0,TLE_LINE1,TLE_LINE2,SEMIMAJOR_AXIS,PERIOD,APOGEE,PERIGEE,DECAYED
55314.0,STARLINK-5305,PAYLOAD,2023-02-04 00:00:00,15.76252268,0.0003544,70.0003,25.4649,267.1244,178.0598,-0.0058031,-0.0083035,0.0,0 STARLINK-5305,1 55314U 23010AX  23035.00001157 -.00830350  00000-0 -58031-2 0  9991,2 55314  70.0003  25.4649 0003544 267.1244 178.0598 15.76252268  2938,6719.207,91.356,343.453,338.691,0.0
55314.0,STARLINK-5305,PAYLOAD,2023-02-04 14:00:01,15.75217198,0.0003471,69.9994,23.8097,265.8776,247.3166,-0.0062029,-0.00846387,0.0,0 STARLINK-5305,1 55314U 23010AX  23035.58334491 -.00846387  00000-0 -62029-2 0  9993,2 55314  69.9994  23.8097 0003471 265.8776 247.3166 15.75217198  1300,6722.15,91.416,346.348,341.682,0.0
55314.0,STARLINK-5305,PAYLOAD,2023-02-04 22:00:00,15.74610455,0.0003488,70.0001,22.8665,264.1394,338.3669,-0.0062677,-0.0083409,0.0,0 STARLINK-5305,1 55314U 23010AX  23035.91667824 -.00834090  00000-0 -62677-2 0  9996,2 55314  70.0001  22.8665 0003488 264.1394 338.3669 15.74610455  1309,6723.877,91.451,348.087,343.397,0.0
55314.0,STARLINK-5305,PAYLOAD,2023-02-05 00:00:02,15.74462038,0.0003615,70.0001,22.6305,265.9553,88.8312,-0.0063198,-0.00835522,0.0,0 STARLINK-5305,1 55314U 23010AX  23036.00002315 -.00835522  00000-0 -63198-2 0  9995,2 55314  70.0001  22.6305 0003615 265.9553  88.8312 15.74462038  3098,6724.299,91.46,348.595,343.734,0.0
55314.0,STARLINK-5305,PAYLOAD,2023-02-05 14:00:01,15.7343151,0.000362,69.9961,20.9717,268.22,150.8509,-0.0069153,-0.00870693,0.0,0 STARLINK-5305,1 55314U 23010AX  23036.58335648 -.00870693  00000-0 -69153-2 0  9991,2 55314  69.9961  20.9717 0003620 268.2200 150.8509 15.73431510  1309,6727.235,91.52,351.535,346.665,0.0
55314.0,STARLINK-5305,PAYLOAD,2023-02-05 22:00:00,15.72836747,0.0003451,69.9966,20.0308,264.5731,241.5795,-0.0069063,-0.00849686,0.0,0 STARLINK-5305,1 55314U 23010AX  23036.91667824 -.00849686  00000-0 -69063-2 0  9990,2 55314  69.9966  20.0308 0003451 264.5731 241.5795 15.72836747  1306,6728.931,91.554,353.118,348.474,0.0
55314.0,STARLINK-5305,PAYLOAD,2023-02-06 06:00:00,15.72187436,0.0003527,69.9969,19.0899,271.6669,320.9511,-0.0065567,-0.0079025,0.0,0 STARLINK-5305,1 55314U 23010AX  23037.25001157 -.00790250  00000-0 -65567-2 0  9996,2 55314  69.9969  19.0899 0003527 271.6669 320.9511 15.72187436  3297,6730.784,91.592,355.023,350.275,0.0
55314.0,STARLINK-5305,PAYLOAD,2023-02-06 14:00:01,15.716409,0.0003662,69.9967,18.15,270.0052,48.319,-0.0075145,-0.00875892,0.0,0 STARLINK-5305,1 55314U 23010AX  23037.58334491 -.00875892  00000-0 -75145-2 0  9991,2 55314  69.9967  18.1500 0003662 270.0052  48.3190 15.71640900  1306,6732.344,91.624,356.674,351.744,0.0
55314.0,STARLINK-5305,PAYLOAD,2023-02-06 22:00:00,15.710422,0.0003639,69.997,17.2111,266.0678,137.2556,-0.0075011,-0.00854663,0.0,0 STARLINK-5305,1 55314U 23010AX  23037.91667824 -.00854663  00000-0 -75011-2 0  9992,2 55314  69.9970  17.2111 0003639 266.0678 137.2556 15.71042200  1304,6734.054,91.659,358.37,353.469,0.0
55314.0,STARLINK-5305,PAYLOAD,2023-02-07 00:00:00,15.70905379,0.0003521,69.9972,16.9764,266.6067,247.8559,-0.0078319,-0.0088401,0.0,0 STARLINK-5305,1 55314U 23010AX  23038.00001157 -.00884010  00000-0 -78319-2 0  9997,2 55314  69.9972  16.9764 0003521 266.6067 247.8559 15.70905379  3413,6734.445,91.667,358.681,353.939,0.0
55314.0,STARLINK-5305,PAYLOAD,2023-02-07 14:00:01,15.69943823,0.0003492,69.9986,15.3349,267.5484,303.657,-0.00055915,-0.00066969,0.0,0 STARLINK-5305,1 55314U 23010AX  23038.58334491 -.00066969  00000-0 -55915-3 0  9993,2 55314  69.9986  15.3349 0003492 267.5484 303.6570 15.69943823  1304,6737.195,91.723,361.412,356.707,0.0
55314.0,STARLINK-5305,PAYLOAD,2023-02-07 16:00:01,15.69899008,0.0003491,69.999,15.1004,264.7546,57.3632,0.00016303,0.00019416,0.0,0 STARLINK-5305,1 55314U 23010AX  23038.66668981  .00019416  00000-0  16303-3 0  9997,2 55314  69.9990  15.1004 0003491 264.7546  57.3632 15.69899008  3514,6737.323,91.726,361.54,356.836,0.0
55314.0,STARLINK-5305,PAYLOAD,2023-02-07 22:00:00,15.70226684,0.0003794,69.9969,14.3971,260.1995,34.6811,0.00164,0.00204417,0.0,0 STARLINK-5305,1 55314U 23010AX  23038.91667824  .00204417  00000-0  16400-2 0  9994,2 55314  69.9969  14.3971 0003794 260.1995  34.6811 15.70226684  1306,6736.386,91.707,360.806,355.695,0.0
55314.0,STARLINK-5305,PAYLOAD,2023-02-08 00:00:00,15.70282259,0.0003802,69.997,14.1626,260.3313,145.4732,0.0012244,0.00151954,0.0,0 STARLINK-5305,1 55314U 23010AX  23039.00001157  .00151954  00000-0  12244-2 0  9995,2 55314  69.9970  14.1626 0003802 260.3313 145.4732 15.70282259  3562,6736.227,91.703,360.653,355.531,0.0
55314.0,STARLINK-5305,PAYLOAD,2023-02-08 14:00:01,15.7001131,0.0003598,69.9999,12.523,269.3704,191.7948,-0.0012827,-0.00152245,0.0,0 STARLINK-5305,1 55314U 23010AX  23039.58334491 -.00152245  00000-0 -12827-2 0  9991,2 55314  69.9999  12.5230 0003598 269.3704 191.7948 15.70011310  1302,6737.002,91.719,361.291,356.443,0.0
55314.0,STARLINK-5305,PAYLOAD,2023-02-08 16:00:00,15.6993476,0.0003554,70.0002,12.2887,269.0189,303.0166,-0.00023524,-0.00028417,0.0,0 STARLINK-5305,1 55314U 23010AX  23039.66667824 -.00028417  00000-0 -23524-3 0  9999,2 55314  70.0002  12.2887 0003554 269.0189 303.0166 15.69934760  3674,6737.221,91.724,361.48,356.691,0.0
55314.0,STARLINK-5305,PAYLOAD,2023-02-08 22:00:00,15.69961757,0.0003528,70.0004,11.586,267.3483,277.1819,-0.00029289,-0.00035339,0.0,0 STARLINK-5305,1 55314U 23010AX  23039.91667824 -.00035339  00000-0 -29289-3 0  9992,2 55314  70.0004  11.5860 0003528 267.3483 277.1819 15.69961757  1308,6737.143,91.722,361.385,356.632,0.0
55314.0,STARLINK-5305,PAYLOAD,2023-02-09 08:00:01,15.69869533,0.0003545,70.0,10.4143,273.6811,105.0898,0.00022921,0.00027376,0.0,0 STARLINK-5305,1 55314U 23010AX  23040.33334491  .00027376  00000-0  22921-3 0  9997,2 55314  70.0000  10.4143 0003545 273.6811 105.0898 15.69869533  3778,6737.407,91.727,361.661,356.884,0.0
55314.0,STARLINK-5305,PAYLOAD,2023-02-09 12:00:00,15.69875673,0.0003533,69.9997,9.9459,271.2493,329.1614,0.00027827,0.00033314,0.0,0 STARLINK-5305,1 55314U 23010AX  23040.50001157  .00033314  00000-0  27827-3 0  9995,2 55314  69.9997   9.9459 0003533 271.2493 329.1614 15.69875673  1304,6737.39,91.727,361.635,356.874,0.0
55314.0,STARLINK-5305,PAYLOAD,2023-02-09 22:00:00,15.69952959,0.0003515,70.0005,8.7742,264.4571,170.052,-6.2624e-05,-7.745e-05,0.0,0 STARLINK-5305,1 55314U 23010AX  23040.91667824 -.00007745  00000-0 -62624-4 0  9995,2 55314  70.0005   8.7742 0003515 264.4571 170.0520 15.69952959  1302,6737.169,91.722,361.402,356.665,0.0
55314.0,STARLINK-5305,PAYLOAD,2023-02-10 04:00:00,15.69945741,0.000361,70.0006,8.0713,269.9275,137.1152,-0.0003734,-0.00044914,0.0,0 STARLINK-5305,1 55314U 23010AX  23041.16667824 -.00044914  00000-0 -37340-3 0  9998,2 55314  70.0006   8.0713 0003610 269.9275 137.1152 15.69945741  1307,6737.189,91.723,361.486,356.622,0.0
55314.0,STARLINK-5305,PAYLOAD,2023-02-10 18:00:00,15.6981535,0.0003757,70.0005,6.4314,261.8778,201.059,0.0015008,0.00183429,0.0,0 STARLINK-5305,1 55314U 23010AX  23041.75001157  .00183429  00000-0  15008-2 0  9993,2 55314  70.0005   6.4314 0003757 261.8778 201.0590 15.69815350  3992,6737.562,91.731,361.959,356.896,0.0
55314.0,STARLINK-5305,PAYLOAD,2023-02-10 22:00:00,15.6988257,0.0003762,70.0008,5.9631,260.1192,64.4136,0.00081612,0.00098919,0.0,0 STARLINK-5305,1 55314U 23010AX  23041.91667824  .00098919  00000-0  81612-3 0  9994,2 55314  70.0008   5.9631 0003762 260.1192  64.4136 15.69882570  4029,6737.37,91.727,361.77,356.7,0.0
55314.0,STARLINK-5305,PAYLOAD,2023-02-11 08:51:20,15.69959299,0.0003475,70.0002,4.6917,257.7826,102.2981,0.00056348,0.00068194,0.0,0 STARLINK-5305,1 55314U 23010AX  23042.36898424  .00068194  00000-0  56348-3 0  9996,2 55314  70.0002   4.6917 0003475 257.7826 102.2981 15.69959299  4092,6737.15,91.722,361.357,356.674,0.0
55314.0,STARLINK-5305,PAYLOAD,2023-02-12 06:15:52,15.69940009,0.0004088,69.9997,2.1835,252.386,107.689,0.00024356,0.00029198,0.0,0 STARLINK-5305,1 55314U 23010AX  23043.26101970  .00029198  00000-0  24356-3 0  9994,2 55314  69.9997   2.1835 0004088 252.3860 107.6890 15.69940009  4237,6737.206,91.723,361.825,356.316,0.0
55314.0,STARLINK-5305,PAYLOAD,2023-02-12 09:19:22,15.69945361,0.0003774,70.0002,1.8246,247.796,112.2836,0.00021423,0.0002565,0.0,0 STARLINK-5305,1 55314U 23010AX  23043.38845161  .00025650  00000-0  21423-3 0  9995,2 55314  70.0002   1.8246 0003774 247.7960 112.2836 15.69945361  5441,6737.19,91.723,361.598,356.513,0.0
55314.0,STARLINK-5305,PAYLOAD,2023-02-13 06:43:53,15.69949302,0.0004048,70.0003,359.318,257.8029,102.2713,0.00013105,0.00015592,0.0,0 STARLINK-5305,1 55314U 23010AX  23044.28048084  .00015592  00000-0  13105-3 0  9996,2 55314  70.0003 359.3180 0004048 257.8029 102.2713 15.69949302  4398,6737.179,91.723,361.771,356.317,0.0
55314.0,STARLINK-5305,PAYLOAD,2023-02-13 14:22:39,15.6992271,0.0003321,70.0,358.4202,260.0902,99.9919,1.8661e-05,2.032e-05,0.0,0 STARLINK-5305,1 55314U 23010AX  23044.59906887  .00002032  00000-0  18661-4 0  9992,2 55314  70.0000 358.4202 0003321 260.0902  99.9919 15.69922710  4449,6737.255,91.724,361.358,356.883,0.0
55314.0,STARLINK-5305,PAYLOAD,2023-02-14 02:36:40,15.69922144,0.0003413,69.9998,356.9871,262.7401,97.3406,4.991e-05,5.792e-05,0.0,0 STARLINK-5305,1 55314U 23010AX  23045.10880477  .00005792  00000-0  49910-4 0  9993,2 55314  69.9998 356.9871 0003413 262.7401  97.3406 15.69922144  5717,6737.257,91.724,361.421,356.822,0.0
55314.0,STARLINK-5305,PAYLOAD,2023-02-15 06:08:13,15.69907189,0.0003343,70.0,353.7634,267.3762,92.7051,-3.7615e-05,-4.73e-05,0.0,0 STARLINK-5305,1 55314U 23010AX  23046.25570964 -.00004730  00000-0 -37615-4 0  9999,2 55314  70.0000 353.7634 0003343 267.3762  92.7051 15.69907189  4704,6737.3,91.725,361.417,356.912,0.0
